QIANFAN-89              
1 63175U 25046S   25204.67227195  .00000110  00000+0  15212-3 0  9996
2 63175  88.9852 334.6701 0017121 170.1384 190.0106 13.50960733 28222
QIANFAN-90              
1 63176U 25046T   25204.62698850  .00000132  00000+0  18633-3 0  9996
2 63176  88.9852 334.6469 0014137 167.1892 192.9621 13.50959152 28235
